STARLINK-37533          
1 69130U 26110G   26176.12108910  .00029117  00000+0  90107-3 0  9992
2 69130  97.2847  12.3993 0001813  88.4436 271.7015 15.33433250  6829
STARLINK-37530          
1 69131U 26110H   26176.05312360  .00021971  00000+0  68072-3 0  9997
2 69131  97.2852  12.3389 0001744  89.7147 270.4296 15.33452856  6810
STARLINK-37660          
1 69132U 26110J   26176.16667823 -.00031960  00000+0 -99093-3 0  9995
2 69132  97.2849  12.4563 0002116  88.1283 193.4662 15.33471691  5964
STARLINK-37633          
1 69133U 26110K   26176.04768046  .00024632  00000+0  76228-3 0  9993
2 69133  97.2857  12.3447 0001465 131.2065 228.9304 15.33466977  6811
STARLINK-37361          
1 69134U 26110L   26176.11021669  .00019723  00000+0  61135-3 0  9991
2 69134  97.2845  12.4127 0001110 109.2266 250.9097 15.33461398  6827
STARLINK-37372          
1 69135U 26110M   26176.10749860  .00012583  00000+0  39134-3 0  9992
2 69135  97.2856  12.4168 0001574  95.8000 264.3422 15.33451610  6822
STARLINK-37531          
1 69136U 26110N   26176.10479102  .00021824  00000+0  67602-3 0  9991
2 69136  97.2837  12.4204 0002835  83.4561 276.7005 15.33459487  6823
STARLINK-37662          
1 69137U 26110P   26176.16667823 -.00038877  00000+0 -12083-2 0  9997
2 69137  97.2851  12.4887 0001837 109.3854 247.1569 15.33438489  5905
STARLINK-37658          
1 69138U 26110Q   26176.16667823 -.00029628  00000+0 -91790-3 0  9995
2 69138  97.2853  12.4940 0002005 105.5520 266.0147 15.33480914  6020
STARLINK-37659          
1 69139U 26110R   26176.16667823 -.00026127  00000+0 -80845-3 0  9996
2 69139  97.2853  12.4994 0001770 100.5661 286.0237 15.33495142  6020
STARLINK-37653          
1 69140U 26110S   26176.16667823 -.00030186  00000+0 -93541-3 0  9995
2 69140  97.2855  12.5068 0001803  82.7633 318.8270 15.33477492  6023
STARLINK-37654          
1 69141U 26110T   26176.16667823 -.00032738  00000+0 -10153-2 0  9998
2 69141  97.2855  12.5137 0001575  93.1616 323.4274 15.33471165  5974
STARLINK-37655          
1 69142U 26110U   26176.16667823 -.00025891  00000+0 -80103-3 0  9994
2 69142  97.2858  12.5202 0001558  92.9837 338.5504 15.33498452  6022
STARLINK-37636          
1 69143U 26110V   26176.02048848  .00025534  00000+0  78998-3 0  9991
2 69143  97.2858  12.3824 0001192 112.3500 247.7869 15.33468827  6814
STARLINK-37638          
1 69144U 26110W   26176.01777066  .00027114  00000+0  83881-3 0  9995
2 69144  97.2865  12.3871 0001141 119.6533 240.4823 15.33458710  6815
STARLINK-37657          
1 69145U 26110X   26176.16667823 -.00031137  00000+0 -96462-3 0  9992
2 69145  97.2856  12.5397 0001885  93.1228  23.3855 15.33492356  6023
STARLINK-37639          
1 69146U 26110Y   26176.16667823 -.00036644  00000+0 -11372-2 0  9997
2 69146  97.2860  12.5486 0001786  90.4394  41.1351 15.33471322  6021
STARLINK-37661          
1 69147U 26110Z   26176.16667823 -.00018445  00000+0 -50977-3 0  9992
2 69147  97.2848  12.5445 0002000  87.8619  45.6195 15.36973757  6020
STARLINK-37395          
1 69148U 26111A   26176.16667823 -.00048215  00000+0 -86388-3 0  9997
2 69148  53.1594 113.8644 0001488  86.1634 236.8404 15.49318036  6073
STARLINK-37346          
1 69149U 26111B   26176.05088138  .00088658  00000+0  15826-2 0  9993
2 69149  53.1584 115.2187 0000929  76.1390 283.9722 15.49335012  5469
STARLINK-37332          
1 69150U 26111C   26176.14420656  .00095755  00000+0  17078-2 0  9997
2 69150  53.1583 115.0973 0001459  68.6023 291.5141 15.49324456  5470
STARLINK-37297          
1 69151U 26111D   26176.16667823  .00041738  00000+0  12416-2 0  9992
2 69151  53.1594 114.2616 0002163  89.6980  32.8057 15.34347924  6074
STARLINK-37317          
1 69152U 26111E   26176.16667823  .00039308  00000+0  11702-2 0  9990
2 69152  53.1597 114.2336 0001466  85.7810  48.3715 15.34352476  6072
STARLINK-37374          
1 69153U 26111F   26176.15990448  .00063730  00000+0  11448-2 0  9995
2 69153  53.1586 115.1991 0001172  65.2344 294.8787 15.49302826  5477
STARLINK-37235          
1 69154U 26111G   26176.05228138  .00046051  00000+0  83075-3 0  9998
2 69154  53.1582 115.9561 0001037  69.3237 290.7883 15.49323673  5454
STARLINK-37329          
1 69155U 26111H   26176.16667823  .00024784  00000+0  74275-3 0  9990
2 69155  53.1590 114.1875 0001004  81.7265  75.6558 15.34378036  6082
STARLINK-37345          
1 69156U 26111J   26176.16667823  .00024263  00000+0  74670-3 0  9992
2 69156  53.1592 114.1227 0001475 110.6228  78.4435 15.33547481  6085
STARLINK-37353          
1 69157U 26111K   26176.16667823  .00028786  00000+0  86068-3 0  9991
2 69157  53.1593 114.1159 0000861 110.9347  81.3716 15.34368541  6088
STARLINK-37363          
1 69158U 26111L   26176.16667823  .00801864  00000+0  22694-1 0  9991
2 69158  53.1591 114.0909 0002436  75.2390 130.1164 15.33373960  6080
STARLINK-37343          
1 69159U 26111M   26176.09553331  .00092833  00000+0  16563-2 0  9999
2 69159  53.1581 115.5070 0001426  33.5447 326.5652 15.49327611  5466
