OBJECT_NAME,OBJECT_ID,EPOCH,MEAN_MOTION,ECCENTRICITY,INCLINATION,RA_OF_ASC_NODE,ARG_OF_PERICENTER,MEAN_ANOMALY,EPHEMERIS_TYPE,CLASSIFICATION_TYPE,NORAD_CAT_ID,ELEMENT_SET_NO,REV_AT_EPOCH,BSTAR,MEAN_MOTION_DOT,MEAN_MOTION_DDOT
STARLINK-37533,2026-110G,2026-06-25T02:54:22.098240,15.33433250,.0001813,97.2847,12.3993,88.4436,271.7015,0,U,69130,999,682,.90107E-3,.29117E-3,0
STARLINK-37530,2026-110H,2026-06-25T01:16:29.879040,15.33452856,.0001744,97.2852,12.3389,89.7147,270.4296,0,U,69131,999,681,.68072E-3,.21971E-3,0
STARLINK-37660,2026-110J,2026-06-25T04:00:00.999072,15.33471691,.0002116,97.2849,12.4563,88.1283,193.4662,0,U,69132,999,596,-.99093E-3,-.3196E-3,0
STARLINK-37633,2026-110K,2026-06-25T01:08:39.591744,15.33466977,.0001465,97.2857,12.3447,131.2065,228.9304,0,U,69133,999,681,.76228E-3,.24632E-3,0
STARLINK-37361,2026-110L,2026-06-25T02:38:42.722016,15.33461398,.000111,97.2845,12.4127,109.2266,250.9097,0,U,69134,999,682,.61135E-3,.19723E-3,0
STARLINK-37372,2026-110M,2026-06-25T02:34:47.879040,15.33451610,.0001574,97.2856,12.4168,95.8000,264.3422,0,U,69135,999,682,.39134E-3,.12583E-3,0
STARLINK-37531,2026-110N,2026-06-25T02:30:53.944128,15.33459487,.0002835,97.2837,12.4204,83.4561,276.7005,0,U,69136,999,682,.67602E-3,.21824E-3,0
STARLINK-37662,2026-110P,2026-06-25T04:00:00.999072,15.33438489,.0001837,97.2851,12.4887,109.3854,247.1569,0,U,69137,999,590,-.12083E-2,-.38877E-3,0
STARLINK-37658,2026-110Q,2026-06-25T04:00:00.999072,15.33480914,.0002005,97.2853,12.4940,105.5520,266.0147,0,U,69138,999,602,-.9179E-3,-.29628E-3,0
STARLINK-37659,2026-110R,2026-06-25T04:00:00.999072,15.33495142,.000177,97.2853,12.4994,100.5661,286.0237,0,U,69139,999,602,-.80845E-3,-.26127E-3,0
STARLINK-37653,2026-110S,2026-06-25T04:00:00.999072,15.33477492,.0001803,97.2855,12.5068,82.7633,318.8270,0,U,69140,999,602,-.93541E-3,-.30186E-3,0
STARLINK-37654,2026-110T,2026-06-25T04:00:00.999072,15.33471165,.0001575,97.2855,12.5137,93.1616,323.4274,0,U,69141,999,597,-.10153E-2,-.32738E-3,0
STARLINK-37655,2026-110U,2026-06-25T04:00:00.999072,15.33498452,.0001558,97.2858,12.5202,92.9837,338.5504,0,U,69142,999,602,-.80103E-3,-.25891E-3,0
STARLINK-37636,2026-110V,2026-06-25T00:29:30.204672,15.33468827,.0001192,97.2858,12.3824,112.3500,247.7869,0,U,69143,999,681,.78998E-3,.25534E-3,0
STARLINK-37638,2026-110W,2026-06-25T00:25:35.385024,15.33458710,.0001141,97.2865,12.3871,119.6533,240.4823,0,U,69144,999,681,.83881E-3,.27114E-3,0
STARLINK-37657,2026-110X,2026-06-25T04:00:00.999072,15.33492356,.0001885,97.2856,12.5397,93.1228,23.3855,0,U,69145,999,602,-.96462E-3,-.31137E-3,0
STARLINK-37639,2026-110Y,2026-06-25T04:00:00.999072,15.33471322,.0001786,97.2860,12.5486,90.4394,41.1351,0,U,69146,999,602,-.11372E-2,-.36644E-3,0
STARLINK-37661,2026-110Z,2026-06-25T04:00:00.999072,15.36973757,.0002,97.2848,12.5445,87.8619,45.6195,0,U,69147,999,602,-.50977E-3,-.18445E-3,0
STARLINK-37395,2026-111A,2026-06-25T04:00:00.999072,15.49318036,.0001488,53.1594,113.8644,86.1634,236.8404,0,U,69148,999,607,-.86388E-3,-.48215E-3,0
STARLINK-37346,2026-111B,2026-06-25T01:13:16.151232,15.49335012,.0000929,53.1584,115.2187,76.1390,283.9722,0,U,69149,999,546,.15826E-2,.88658E-3,0
STARLINK-37332,2026-111C,2026-06-25T03:27:39.446784,15.49324456,.0001459,53.1583,115.0973,68.6023,291.5141,0,U,69150,999,547,.17078E-2,.95755E-3,0
STARLINK-37297,2026-111D,2026-06-25T04:00:00.999072,15.34347924,.0002163,53.1594,114.2616,89.6980,32.8057,0,U,69151,999,607,.12416E-2,.41738E-3,0
STARLINK-37317,2026-111E,2026-06-25T04:00:00.999072,15.34352476,.0001466,53.1597,114.2336,85.7810,48.3715,0,U,69152,999,607,.11702E-2,.39308E-3,0
STARLINK-37374,2026-111F,2026-06-25T03:50:15.747072,15.49302826,.0001172,53.1586,115.1991,65.2344,294.8787,0,U,69153,999,547,.11448E-2,.6373E-3,0
STARLINK-37235,2026-111G,2026-06-25T01:15:17.111232,15.49323673,.0001037,53.1582,115.9561,69.3237,290.7883,0,U,69154,999,545,.83075E-3,.46051E-3,0
STARLINK-37329,2026-111H,2026-06-25T04:00:00.999072,15.34378036,.0001004,53.1590,114.1875,81.7265,75.6558,0,U,69155,999,608,.74275E-3,.24784E-3,0
STARLINK-37345,2026-111J,2026-06-25T04:00:00.999072,15.33547481,.0001475,53.1592,114.1227,110.6228,78.4435,0,U,69156,999,608,.7467E-3,.24263E-3,0
STARLINK-37353,2026-111K,2026-06-25T04:00:00.999072,15.34368541,.0000861,53.1593,114.1159,110.9347,81.3716,0,U,69157,999,608,.86068E-3,.28786E-3,0
STARLINK-37363,2026-111L,2026-06-25T04:00:00.999072,15.33373960,.0002436,53.1591,114.0909,75.2390,130.1164,0,U,69158,999,608,.22694E-1,.801864E-2,0
STARLINK-37343,2026-111M,2026-06-25T02:17:34.077984,15.49327611,.0001426,53.1581,115.5070,33.5447,326.5652,0,U,69159,999,546,.16563E-2,.92833E-3,0
